ALOS-2                  
1 39766U 14029A   26186.06187343  .00000552  00000+0  80746-4 0  9992
2 39766  97.9228 282.9699 0001666  89.5658 270.5745 14.79477316654223
KAZEOSAT 2              
1 40010U 14033A   26186.61928257  .00000325  00000+0  43461-4 0  9990
2 40010  97.5395  25.2561 0007065 257.9340 102.1084 14.85490550651698
HODOYOSHI-4             
1 40011U 14033B   26186.65933975  .00001894  00000+0  21033-3 0  9990
2 40011  97.5454  10.5901 0022173 243.0017 116.8936 14.88172351651556
DEIMOS-2                
1 40013U 14033D   26186.60464869  .00003904  00000+0  37338-3 0  9997
2 40013  97.5801  60.4440 0001110  85.6235 274.5112 14.93783335640479
HODOYOSHI-3             
1 40015U 14033F   26186.03620597  .00001276  00000+0  15300-3 0  9993
2 40015  97.6436 348.3602 0031457 297.0004  62.8001 14.85424745650276
SPOT 7                  
1 40053U 14034A   26186.60503013  .00000803  00000+0  17300-3 0  9999
2 40053  98.0615 248.6220 0001491  96.9514 263.1857 14.60976237639821
SKYSAT-B                
1 40072U 14037D   26185.87723848  .00001730  00000+0  19485-3 0  9997
2 40072  98.3847 145.8518 0004728 208.3182 151.7776 14.88075391648593
WORLDVIEW-3 (WV-3)      
1 40115U 14048A   26186.42725920  .00001170  00000+0  14322-3 0  9995
2 40115  97.8560 261.0080 0000508 167.0322 193.0906 14.85054576644613
GAOFEN-2                
1 40118U 14049A   26186.62220696  .00001595  00000+0  21313-3 0  9990
2 40118  98.0096 250.8117 0007497 162.5796 197.5675 14.80923338641962
YAOGAN-21               
1 40143U 14053A   26186.64810618  .00012453  00000+0  47642-3 0  9992
2 40143  97.1459 226.0931 0008765  39.0467 321.1404 15.26672719657770
YAOGAN-22               
1 40275U 14063A   26186.36188891 -.00000015  00000+0  83731-4 0  9991
2 40275 100.7749 337.9386 0006712 145.8091 214.3453 13.15531440562205
ASNARO                  
1 40298U 14070A   26186.59740152  .00016561  00000+0  77625-3 0  9999
2 40298  97.3445 262.2159 0006778 113.1148 247.0802 15.19740593646802
YAOGAN-24               
1 40310U 14072A   26186.65502865  .00000783  00000+0  12101-3 0  9997
2 40310  98.1518 324.1498 0013817 200.6905 159.3746 14.76109553626443
CBERS 4                 
1 40336U 14079A   26186.64759924  .00000197  00000+0  83267-4 0  9992
2 40336  98.3516 242.8996 0001205  50.4760 309.6533 14.35514734606604
YAOGAN-26               
1 40362U 14088A   26186.62462479  .00013164  00000+0  25225-3 0  9992
2 40362  97.0645 186.4110 0003486  23.0954 337.0454 15.48136087640552
SMAP                    
1 40376U 15003A   26186.47303409  .00000569  00000+0  11922-3 0  9999
2 40376  98.1278 193.3086 0001517  98.0099 262.1275 14.63383753610292
KOMPSAT-3A              
1 40536U 15014A   26186.58851391  .00034117  00000+0  47371-3 0  9992
2 40536  97.6892 179.3081 0057025 109.3248 251.4184 15.54994163624673
SENTINEL-2A             
1 40697U 15028A   26186.60629553  .00000565  00000+0  23219-3 0  9996
2 40697  98.5677 261.1967 0001224  94.8488 265.2834 14.30822338576363
GAOFEN-8                
1 40701U 15030A   26186.59581965  .00034258  00000+0  68468-3 0  9998
2 40701  97.6900  21.0783 0009808 124.9081 235.3091 15.46683414614293
CARBONITE 1 (CBNT-1)    
1 40718U 15032D   26186.66229087  .00003523  00000+0  43221-3 0  9991
2 40718  97.6522   3.9560 0013158 229.9110 130.0951 14.83651306592088
YAOGAN-27               
1 40878U 15040A   26186.65365884 -.00000447  00000+0 -10665-2 0  9991
2 40878 100.1163 172.2356 0008236 166.5796 193.5539 13.16069036520092
GAOFEN-9 01             
1 40894U 15047A   26186.61874021  .00001142  00000+0  14603-3 0  9998
2 40894  97.6267 221.4754 0028848  80.3612 280.0859 14.82921761582928
YAOGAN-28               
1 41026U 15064A   26186.66478429  .00007892  00000+0  29388-3 0  9996
2 41026  97.3101 324.5547 0011915 122.5308 237.7085 15.27670518593500
YAOGAN-29               
1 41038U 15069A   26186.59650684  .00000637  00000+0  84812-4 0  9995
2 41038  98.0017 215.2579 0001533  26.7955 333.3338 14.83102379573357
KENT RIDGE 1            
1 41167U 15077B   26186.17142877  .00005171  00000+0  18027-3 0  9993
2 41167  14.9788 132.2238 0008162 133.4510 226.6491 15.23242474583845
GAOFEN-4                
1 41194U 15083A   26186.65968439 -.00000321  00000+0  00000+0 0  9994
2 41194   0.4025  83.8385 0004108 116.0145  66.9963  1.00272654 38713
JASON-3                 
1 41240U 16002A   26186.56587421 -.00000009  00000+0  20853-3 0  9991
2 41240  66.0418  87.1971 0008293 271.4107  88.5961 12.87628627489619
SENTINEL-3A             
1 41335U 16011A   26186.38020816  .00000159  00000+0  83580-4 0  9998
2 41335  98.6241 253.5019 0001424  93.3626 266.7718 14.26738070540658
ZIYUAN 3-02 (ZY 3-02)   
1 41556U 16033A   26186.60705344  .00006617  00000+0  29762-3 0  9994
2 41556  97.3826 262.0272 0013089 219.5576 140.4706 15.21368860560783
CARTOSAT-2C             
1 41599U 16040A   26186.63430935  .00010609  00000+0  50598-3 0  9990
2 41599  97.4469 246.3583 0010087  73.3027 286.9314 15.19222933556510
SKYSAT-C1               
1 41601U 16040C   26186.06138830  .00015073  00000+0  42330-3 0  9995
2 41601  96.9551 216.8145 0001497  20.1771 339.9533 15.36622026560611
LAPAN-A3                
1 41603U 16040E   26186.66172124  .00004577  00000+0  14475-3 0  9993
2 41603  97.1498 182.2020 0008643 317.4246  42.6326 15.33233837557645
GAOFEN-3                
1 41727U 16049A   26186.60789543  .00000100  00000+0  43377-4 0  9994
2 41727  98.4011 194.1158 0001705  90.8434 269.2952 14.42218128521305
SKYSAT-C4               
1 41771U 16058B   26186.35725021  .00024696  00000+0  45403-3 0  9993
2 41771  96.9168 207.3742 0002958 134.2075 225.9421 15.49197861548285
SKYSAT-C5               
1 41772U 16058C   26186.10091346  .00012733  00000+0  38008-3 0  9995
2 41772  97.0455 225.9434 0002214 182.6426 177.4806 15.34742244546497
SKYSAT-C2               
1 41773U 16058D   26186.49120478  .00016348  00000+0  37853-3 0  9990
2 41773  97.0162 207.9008 0002716  27.4889 332.6502 15.42514446547877
SKYSAT-C3               
1 41774U 16058E   26186.31482106  .00035230  00000+0  55736-3 0  9992
2 41774  96.8997 216.4719 0001758 134.8464 225.2934 15.53370393548928
ALSAT-1B                
1 41785U 16059C   26186.59021547  .00000681  00000+0  11523-3 0  9991
2 41785  97.7749 194.5598 0009584 158.1834 201.9784 14.72289837523289
PATHFINDER 1            
1 41787U 16059E   26185.99876153  .00000867  00000+0  15958-3 0  9999
2 41787  97.8170 184.4713 0029234 146.9941 213.3097 14.67685471522321
SCATSAT 1               
1 41790U 16059H   26186.13511589  .00001843  00000+0  24750-3 0  9994
2 41790  98.1181 250.0859 0054444 188.8311 171.1947 14.79571066104248
GOKTURK 1A              
1 41875U 16073A   26186.64633346  .00000346  00000+0  76989-4 0  9995
2 41875  98.1224  81.0294 0001374  79.6332 280.5024 14.62788188511520
RESOURCESAT-2A          
1 41877U 16074A   26186.65173737  .00000239  00000+0  12896-3 0  9999
2 41877  98.7519 260.0052 0002936  47.8140 312.3286 14.21607473496927
CARTOSAT-2D             
1 41948U 17008A   26186.66618208  .00007856  00000+0  37581-3 0  9994
2 41948  97.4088 245.6267 0005061 166.2831 193.8543 15.19238855520383
SENTINEL-2B             
1 42063U 17013A   26186.59909387  .00000398  00000+0  16830-3 0  9990
2 42063  98.5684 261.1137 0001207  88.3280 271.8041 14.30814246487271
CARTOSAT-2E             
1 42767U 17036C   26186.61796265  .00004693  00000+0  22543-3 0  9998
2 42767  97.4261 246.1164 0002771 220.7963 139.3065 15.19316857500948
FORMOSAT-5              
1 42920U 17049A   26186.32813485  .00000242  00000+0  72423-4 0  9994
2 42920  98.2249 261.2346 0011991  33.3060 326.8887 14.50906012469305
SENTINEL-5P             
1 42969U 17064A   26186.24627885  .00000085  00000+0  61548-4 0  9993
2 42969  98.7928 128.2493 0001092  91.9720 268.1581 14.19522229452126
SKYSAT-C11              
1 42987U 17068A   26186.35790816  .00038861  00000+0  50125-3 0  9995
2 42987  97.4369 335.9940 0000445 164.4423 195.6847 15.58907151486077
SKYSAT-C10              
1 42988U 17068B   26186.35214196  .00015835  00000+0  46873-3 0  9999
2 42988  97.4530 323.3818 0001280 108.4758 251.6624 15.34973806485147
SKYSAT-C9               
1 42989U 17068C   26186.34671780  .00019723  00000+0  46293-3 0  9991
2 42989  97.4452 324.4862 0009276  76.0472 284.1806 15.42037710485550
SKYSAT-C8               
1 42990U 17068D   26186.29563034  .00015595  00000+0  42793-3 0  9993
2 42990  97.4548 323.1943 0001213  95.8413 264.2969 15.37350391485096
SKYSAT-C7               
1 42991U 17068E   26186.35489961  .00015369  00000+0  42213-3 0  9993
2 42991  97.4560 324.2451 0006539  52.9349 307.2493 15.37304786485160
SKYSAT-C6               
1 42992U 17068F   26186.34404212  .00014354  00000+0  43423-3 0  9996
2 42992  97.4595 324.1316 0005198 102.0763 258.1062 15.34296872485108
CARTOSAT-2F             
1 43111U 18004A   26186.65056002  .00007889  00000+0  37771-3 0  9999
2 43111  97.4768 246.1050 0001849 156.2377 203.8944 15.19223604470132
GAOFEN-1 02             
1 43259U 18031A   26186.59675286  .00001327  00000+0  19814-3 0  9995
2 43259  98.0513 249.0719 0002049 336.5255  23.5861 14.76463888445415
GAOFEN-1 03             
1 43260U 18031B   26186.64256096  .00000826  00000+0  12608-3 0  9994
2 43260  98.0509 248.9737 0003136  40.0267 320.1173 14.76453185445419
GAOFEN-1 04             
1 43262U 18031D   26186.61831759  .00001711  00000+0  25327-3 0  9994
2 43262  98.0514 249.1429 0001714  60.7325 299.4055 14.76464788445409
SENTINEL-3B             
1 43437U 18039A   26186.21308141  .00000164  00000+0  85603-4 0  9991
2 43437  98.6240 253.4861 0000921 117.0798 243.0476 14.26740289426692
GAOFEN-5 01             
1 43461U 18043A   26185.94149413  .00000459  00000+0  10456-3 0  9997
2 43461  98.4581 157.9016 0002613  51.4428 308.7005 14.60618641434281
GAOFEN-6                
1 43484U 18048A   26186.77585969 -.00000017  00000+0  50539-5 0  9998
2 43484  98.0964 249.4556 0012061 109.1890 251.0626 14.76374832436138
